NORAD_CAT_ID,OBJECT_NAME,OBJECT_TYPE,EPOCH,MEAN_MOTION,ECCENTRICITY,INCLINATION,RA_OF_ASC_NODE,ARG_OF_PERICENTER,MEAN_ANOMALY,BSTAR,MEAN_MOTION_DOT,MEAN_MOTION_DDOT,TLE_LINE0,TLE_LINE1,TLE_LINE2,SEMIMAJOR_AXIS,PERIOD,APOGEE,PERIGEE,DECAYED
51739.0,STARLINK-3516,PAYLOAD,2022-08-04 06:00:00,15.088694199999996,0.0001964,53.2169,95.374,62.5102,350.4385,-0.0036805,-0.00058437,0.0,0 STARLINK-3516,1 51739U 22016AB  22216.25001157 -.00058437  00000-0 -36805-2 0  9993,2 51739  53.2169  95.3740 0001964  62.5102 350.4385 15.08869420 26400,6917.79,95.436,541.014,538.297,0.0
51739.0,STARLINK-3516,PAYLOAD,2022-08-04 14:00:01,15.08805263,0.0001824,53.2169,93.8762,70.0283,354.5358,0.0027848,0.00044269,0.0,0 STARLINK-3516,1 51739U 22016AB  22216.58334491  .00044269  00000-0  27848-2 0  9992,2 51739  53.2169  93.8762 0001824  70.0283 354.5358 15.08805263  1308,6917.986999999999,95.44,541.113,538.59,0.0
51739.0,STARLINK-3516,PAYLOAD,2022-08-04 22:00:00,15.08835612,0.0001954,53.2169,92.3816,65.5488,10.588,-0.0011825,-0.00019056,0.0,0 STARLINK-3516,1 51739U 22016AB  22216.91667824 -.00019056  00000-0 -11825-2 0  9994,2 51739  53.2169  92.3816 0001954  65.5488  10.5880 15.08835612  1302,6917.894,95.438,541.111,538.4069999999998,0.0
51739.0,STARLINK-3516,PAYLOAD,2022-08-05 14:00:01,15.08823008,0.0001878,53.2169,89.3871,71.3769,28.0004,0.0025305999999999,0.00040198,0.0,0 STARLINK-3516,1 51739U 22016AB  22217.58335648  .00040198  00000-0  25306-2 0  9992,2 51739  53.2169  89.3871 0001878  71.3769  28.0004 15.08823008 26609,6917.932,95.439,541.097,538.498,0.0
51739.0,STARLINK-3516,PAYLOAD,2022-08-05 22:00:00,15.08847576,0.0001998,53.217,87.8926,66.3974,44.5089,-0.00079358,-0.00012899,0.0,0 STARLINK-3516,1 51739U 22016AB  22217.91667824 -.00012899  00000-0 -79358-3 0  9999,2 51739  53.2170  87.8926 0001998  66.3974  44.5089 15.08847576  1302,6917.857,95.437,541.104,538.34,0.0
51739.0,STARLINK-3516,PAYLOAD,2022-08-06 08:00:01,15.08866638,0.0001865,53.2172,86.0212,66.7255,148.6779,-0.0043821,-0.00069409,0.0,0 STARLINK-3516,1 51739U 22016AB  22218.33334491 -.00069409  00000-0 -43821-2 0  9991,2 51739  53.2172  86.0212 0001865  66.7255 148.6779 15.08866638 26716,6917.799,95.436,540.9540000000002,538.374,0.0
51739.0,STARLINK-3516,PAYLOAD,2022-08-06 11:49:07,15.08844339,0.0001943999999999,53.2186,85.3068,67.6106,292.5092,6.8525e-05,8.03e-06,0.0,0 STARLINK-3516,1 51739U 22016AB  22218.49244616  .00000803  00000-0  68525-4 0  9998,2 51739  53.2186  85.3068 0001944  67.6106 292.5092 15.08844339 25614,6917.8669999999975,95.437,541.077,538.387,0.0
51739.0,STARLINK-3516,PAYLOAD,2022-08-06 21:21:27,15.08833454,0.0001932,53.2189,83.5226,64.6752,295.444,-1.4010999999999992e-05,-5.11e-06,0.0,0 STARLINK-3516,1 51739U 22016AB  22218.88989610 -.00000511  00000-0 -14011-4 0  9990,2 51739  53.2189  83.5226 0001932  64.6752 295.4440 15.08833454 25675,6917.9,95.438,541.102,538.429,0.0
51739.0,STARLINK-3516,PAYLOAD,2022-08-06 22:00:00,15.0883257,0.0001965,53.2174,83.4036,65.2403,80.4505,-0.00044422,-7.35e-05,0.0,0 STARLINK-3516,1 51739U 22016AB  22218.91667824 -.00007350  00000-0 -44422-3 0  9990,2 51739  53.2174  83.4036 0001965  65.2403  80.4505 15.08832570 26801,6917.903,95.438,541.127,538.409,0.0
51739.0,STARLINK-3516,PAYLOAD,2022-08-07 11:39:55,15.08837568,0.000196,53.2184,80.8471,65.9816,294.1381,1.7162999999999998e-05,-1.5e-07,0.0,0 STARLINK-3516,1 51739U 22016AB  22219.48605376 -.00000015  00000-0  17163-4 0  9990,2 51739  53.2184  80.8471 0001960  65.9816 294.1381 15.08837568 26882,6917.888000000001,95.438,541.109,538.3969999999998,0.0
51739.0,STARLINK-3516,PAYLOAD,2022-08-07 21:12:13,15.0883777,0.0001889,53.2187,79.0623,67.9489,292.1704,0.0001383,1.913e-05,0.0,0 STARLINK-3516,1 51739U 22016AB  22219.88348941  .00001913  00000-0  13830-3 0  9999,2 51739  53.2187  79.0623 0001889  67.9489 292.1704 15.08837770 25827,6917.887,95.438,541.059,538.445,0.0
51739.0,STARLINK-3516,PAYLOAD,2022-08-08 14:00:01,15.08839521,0.0001809,53.2184,75.9205,70.6832,133.0273,0.002091,0.00033147,0.0,0 STARLINK-3516,1 51739U 22016AB  22220.58335648  .00033147  00000-0  20910-2 0  9998,2 51739  53.2184  75.9205 0001809  70.6832 133.0273 15.08839521 27057,6917.882,95.438,540.998,538.495,0.0
51739.0,STARLINK-3516,PAYLOAD,2022-08-08 22:00:00,15.08863925,0.0001885999999999,53.2184,74.4259,63.4943,151.7632,-0.0013754,-0.00022126,0.0,0 STARLINK-3516,1 51739U 22016AB  22220.91667824 -.00022126  00000-0 -13754-2 0  9994,2 51739  53.2184  74.4259 0001886  63.4943 151.7632 15.08863925  1309,6917.807,95.436,540.977,538.368,0.0
51739.0,STARLINK-3516,PAYLOAD,2022-08-09 06:00:00,15.08868343,0.0001708,53.2184,72.9287,63.6605,163.2059,-0.0040715,-0.00064556,0.0,0 STARLINK-3516,1 51739U 22016AB  22221.25001157 -.00064556  00000-0 -40715-2 0  9993,2 51739  53.2184  72.9287 0001708  63.6605 163.2059 15.08868343 27154,6917.794,95.436,540.84,538.477,0.0
51739.0,STARLINK-3516,PAYLOAD,2022-08-09 14:00:01,15.08820814,0.0001598,53.2186,71.4316,69.5918,168.8727,0.0011635,0.00018268,0.0,0 STARLINK-3516,1 51739U 22016AB  22221.58334491  .00018268  00000-0  11635-2 0  9995,2 51739  53.2186  71.4316 0001598  69.5918 168.8727 15.08820814  1305,6917.939,95.439,540.91,538.6990000000002,0.0
51739.0,STARLINK-3516,PAYLOAD,2022-08-09 22:00:00,15.08817627,0.0001715,53.2185,69.937,61.2712,188.7729,0.0010492,0.00016439,0.0,0 STARLINK-3516,1 51739U 22016AB  22221.91667824  .00016439  00000-0  10492-2 0  9999,2 51739  53.2185  69.9370 0001715  61.2712 188.7729 15.08817627 27251,6917.949000000001,95.439,541.0,538.627,0.0
51739.0,STARLINK-3516,PAYLOAD,2022-08-10 14:00:01,15.08813465,0.0001465,53.2184,66.9427,69.3873,203.8134,0.0012645,0.00019879,0.0,0 STARLINK-3516,1 51739U 22016AB  22222.58334491  .00019879  00000-0  12645-2 0  9997,2 51739  53.2184  66.9427 0001465  69.3873 203.8134 15.08813465  1302,6917.9609999999975,95.439,540.84,538.813,0.0
51739.0,STARLINK-3516,PAYLOAD,2022-08-10 22:00:00,15.08834902,0.000169,53.2182,65.44800000000001,62.8618,221.947,0.0011210999999999,0.00017597,0.0,0 STARLINK-3516,1 51739U 22016AB  22222.91667824  .00017597  00000-0  11211-2 0  9996,2 51739  53.2182  65.4480 0001690  62.8618 221.9470 15.08834902  1301,6917.896,95.438,540.93,538.592,0.0
51739.0,STARLINK-3516,PAYLOAD,2022-08-11 06:00:02,15.08865948,0.0001525,53.2178,63.9504,64.9762,231.4889,-0.0044027,-0.00069728,0.0,0 STARLINK-3516,1 51739U 22016AB  22223.25002315 -.00069728  00000-0 -44027-2 0  9998,2 51739  53.2178  63.9504 0001525  64.9762 231.4889 15.08865948 27454,6917.801,95.436,540.721,538.611,0.0
51739.0,STARLINK-3516,PAYLOAD,2022-08-11 14:00:01,15.08831121,0.0001465999999999,53.2179,62.4535,71.6357,236.3593,0.0006245,9.662e-05,0.0,0 STARLINK-3516,1 51739U 22016AB  22223.58334491  .00009662  00000-0  62450-3 0  9997,2 51739  53.2179  62.4535 0001466  71.6357 236.3593 15.08831121  1300,6917.908,95.438,540.7869999999998,538.758,0.0
51739.0,STARLINK-3516,PAYLOAD,2022-08-11 22:00:00,15.08820983,0.0001595,53.2177,60.9589,62.8865,256.702,0.0015715,0.00024798,0.0,0 STARLINK-3516,1 51739U 22016AB  22223.91667824  .00024798  00000-0  15715-2 0  9991,2 51739  53.2177  60.9589 0001595  62.8865 256.7020 15.08820983 27559,6917.939,95.439,540.9069999999998,538.7,0.0
51739.0,STARLINK-3516,PAYLOAD,2022-08-12 14:00:01,15.08865483,0.0001440999999999,53.2174,57.9643,71.7093,271.0603,-0.0011363,-0.00018339,0.0,0 STARLINK-3516,1 51739U 22016AB  22224.58334491 -.00018339  00000-0 -11363-2 0  9997,2 51739  53.2174  57.9643 0001441  71.7093 271.0603 15.08865483  1301,6917.802,95.436,540.664,538.6709999999998,0.0
51739.0,STARLINK-3516,PAYLOAD,2022-08-12 22:00:01,15.08817084,0.0001512,53.2174,56.4694,61.8951,292.5586,0.0015137,0.00023869,0.0,0 STARLINK-3516,1 51739U 22016AB  22224.91668981  .00023869  00000-0  15137-2 0  9993,2 51739  53.2174  56.4694 0001512  61.8951 292.5586 15.08817084 27707,6917.95,95.439,540.861,538.769,0.0
51739.0,STARLINK-3516,PAYLOAD,2022-08-13 14:00:01,15.08817303,0.0001296999999999,53.2171,53.4744,67.9653,309.5292,-0.00031393,-5.277e-05,0.0,0 STARLINK-3516,1 51739U 22016AB  22225.58334491 -.00005277  00000-0 -31393-3 0  9991,2 51739  53.2171  53.4744 0001297  67.9653 309.5292 15.08817303  1308,6917.95,95.439,540.712,538.918,0.0
51739.0,STARLINK-3516,PAYLOAD,2022-08-13 22:00:00,15.08806906,0.0001439,53.2173,51.9801,58.3697,330.6878,0.0065766999999999,0.0010585999999999,0.0,0 STARLINK-3516,1 51739U 22016AB  22225.91667824  .00105860  00000-0  65767-2 0  9995,2 51739  53.2173  51.9801 0001439  58.3697 330.6878 15.08806906  1309,6917.982,95.44,540.842,538.851,0.0
51739.0,STARLINK-3516,PAYLOAD,2022-08-14 06:00:02,15.08840439,0.0001402,53.2174,50.4816,57.7153,343.0217,-0.00047429,-7.828e-05,0.0,0 STARLINK-3516,1 51739U 22016AB  22226.25002315 -.00007828  00000-0 -47429-3 0  9994,2 51739  53.2174  50.4816 0001402  57.7153 343.0217 15.08840439 27919,6917.879,95.438,540.714,538.774,0.0
51739.0,STARLINK-3516,PAYLOAD,2022-08-14 14:00:01,15.08837926,0.0001355,53.2177,48.9859,65.2178,346.9684,-0.00041781,-6.931e-05,0.0,0 STARLINK-3516,1 51739U 22016AB  22226.58334491 -.00006931  00000-0 -41781-3 0  9992,2 51739  53.2177  48.9859 0001355  65.2178 346.9684 15.08837926  1301,6917.887,95.438,540.689,538.814,0.0
51739.0,STARLINK-3516,PAYLOAD,2022-08-14 16:00:01,15.08843034,0.0001394,53.2178,48.6122,62.5306,82.6144,-0.0014834,-0.0002381999999999,0.0,0 STARLINK-3516,1 51739U 22016AB  22226.66668981 -.00023820  00000-0 -14834-2 0  9999,2 51739  53.2178  48.6122 0001394  62.5306  82.6144 15.08843034 27971,6917.871,95.437,540.7,538.7719999999998,0.0
51739.0,STARLINK-3516,PAYLOAD,2022-08-14 22:00:00,15.08811156,0.0001472,53.218,47.4911,56.1685,7.6115,0.0028781999999999,0.0004578,0.0,0 STARLINK-3516,1 51739U 22016AB  22226.91667824  .00045780  00000-0  28782-2 0  9996,2 51739  53.2180  47.4911 0001472  56.1685   7.6115 15.08811156  1307,6917.969,95.439,540.852,538.815,0.0
